{"type": "FeatureCollection", "features": [ {"type": "Feature", "properties": {"norad_id": 66829, "name": "STARLINK-36084", "group": "last-30-days", "lat": -26.963655153253107, "lon": 152.45129130247534, "alt_km": 413.190205121663, "timestamp": "2025-12-25T14:48:23.570447+00:00", "meta": {"OBJECT_NAME": "STARLINK-36084", "OBJECT_ID": "2025-280J", "EPOCH": "2025-12-25T05:39:10.733760", "MEAN_MOTION": 15.52562463, "ECCENTRICITY": 0.00031948, "INCLINATION": 70.0005, "RA_OF_ASC_NODE": 164.1736, "ARG_OF_PERICENTER": 270.0635, "MEAN_ANOMALY": 90.0186, "EPHEMERIS_TYPE": 0, "CLASSIFICATION_TYPE": "U", "NORAD_CAT_ID": 66829, "ELEMENT_SET_NO": 999, "REV_AT_EPOCH": 487, "BSTAR": 0.0017221091, "MEAN_MOTION_DOT": 0.00107387, "MEAN_MOTION_DDOT": 0}, "tle": {"line1": "1 66829U 25280J   25359.23554090  .00107387  00000+0  17221-2 0  9990", "line2": "2 66829  70.0005 164.1736 0003194 270.0635  90.0186 15.52562463  4875"}}, "geometry": {"type": "Point", "coordinates": [152.45129130247534, -26.963655153253107]}}, {"type": "Feature", "properties": {"norad_id": 66830, "name": "STARLINK-35881", "group": "last-30-days", "lat": -23.405594232682997, "lon": 154.05374306591688, "alt_km": 413.0410989391421, "timestamp": "2025-12-25T14:48:23.570458+00:00", "meta": {"OBJECT_NAME": "STARLINK-35881", "OBJECT_ID": "2025-280K", "EPOCH": "2025-12-25T05:38:11.391648", "MEAN_MOTION": 15.52568098, "ECCENTRICITY": 0.00032247, "INCLINATION": 70.0006, "RA_OF_ASC_NODE": 164.1707, "ARG_OF_PERICENTER": 269.749, "MEAN_ANOMALY": 90.3327, "EPHEMERIS_TYPE": 0, "CLASSIFICATION_TYPE": "U", "NORAD_CAT_ID": 66830, "ELEMENT_SET_NO": 999, "REV_AT_EPOCH": 487, "BSTAR": 0.0017247793, "MEAN_MOTION_DOT": 0.00107578, "MEAN_MOTION_DDOT": 0}, "tle": {"line1": "1 66830U 25280K   25359.23485407  .00107578  00000+0  17248-2 0  9998", "line2": "2 66830  70.0006 164.1707 0003224 269.7490  90.3327 15.52568098  4874"}}, "geometry": {"type": "Point", "coordinates": [154.05374306591688, -23.405594232682997]}}, {"type": "Feature", "properties": {"norad_id": 66831, "name": "STARLINK-35788", "group": "last-30-days", "lat": -21.681930225889204, "lon": 154.79698977784332, "alt_km": 412.8298701007707, "timestamp": "2025-12-25T14:48:23.570469+00:00", "meta": {"OBJECT_NAME": "STARLINK-35788", "OBJECT_ID": "2025-280L", "EPOCH": "2025-12-25T05:37:41.844576", "MEAN_MOTION": 15.52545559, "ECCENTRICITY": 0.00033434, "INCLINATION": 70.0004, "RA_OF_ASC_NODE": 164.1703, "ARG_OF_PERICENTER": 277.1973, "MEAN_ANOMALY": 82.8833, "EPHEMERIS_TYPE": 0, "CLASSIFICATION_TYPE": "U", "NORAD_CAT_ID": 66831, "ELEMENT_SET_NO": 999, "REV_AT_EPOCH": 487, "BSTAR": 0.0010701882, "MEAN_MOTION_DOT": 0.00066286, "MEAN_MOTION_DDOT": 0}, "tle": {"line1": "1 66831U 25280L   25359.23451209  .00066286  00000+0  10702-2 0  9990", "line2": "2 66831  70.0004 164.1703 0003343 277.1973  82.8833 15.52545559  4875"}}, "geometry": {"type": "Point", "coordinates": [154.79698977784332, -21.681930225889204]}}, {"type": "Feature", "properties": {"norad_id": 66832, "name": "STARLINK-35768", "group": "last-30-days", "lat": -19.883542138201502, "lon": 155.55069616394502, "alt_km": 412.8998556508568, "timestamp": "2025-12-25T14:48:23.570478+00:00", "meta": {"OBJECT_NAME": "STARLINK-35768", "OBJECT_ID": "2025-280M", "EPOCH": "2025-12-25T05:37:12.178272", "MEAN_MOTION": 15.52552681, "ECCENTRICITY": 0.00033022, "INCLINATION": 70.0007, "RA_OF_ASC_NODE": 164.1681, "ARG_OF_PERICENTER": 272.1725, "MEAN_ANOMALY": 87.9084, "EPHEMERIS_TYPE": 0, "CLASSIFICATION_TYPE": "U", "NORAD_CAT_ID": 66832, "ELEMENT_SET_NO": 999, "REV_AT_EPOCH": 487, "BSTAR": 0.0011775397, "MEAN_MOTION_DOT": 0.00073033, "MEAN_MOTION_DDOT": 0}, "tle": {"line1": "1 66832U 25280M   25359.23416873  .00073033  00000+0  11775-2 0  9998", "line2": "2 66832  70.0007 164.1681 0003302 272.1725  87.9084 15.52552681  4877"}}, "geometry": {"type": "Point", "coordinates": [155.55069616394502, -19.883542138201502]}}, {"type": "Feature", "properties": {"norad_id": 66833, "name": "STARLINK-35858", "group": "last-30-days", "lat": -18.077740130254917, "lon": 156.2904990247356, "alt_km": 413.1640591126679, "timestamp": "2025-12-25T14:48:23.570487+00:00", "meta": {"OBJECT_NAME": "STARLINK-35858", "OBJECT_ID": "2025-280N", "EPOCH": "2025-12-25T05:36:42.440256", "MEAN_MOTION": 15.52557013, "ECCENTRICITY": 0.00031518, "INCLINATION": 70.0005, "RA_OF_ASC_NODE": 164.1675, "ARG_OF_PERICENTER": 262.1942, "MEAN_ANOMALY": 97.8887, "EPHEMERIS_TYPE": 0, "CLASSIFICATION_TYPE": "U", "NORAD_CAT_ID": 66833, "ELEMENT_SET_NO": 999, "REV_AT_EPOCH": 487, "BSTAR": 0.001372725, "MEAN_MOTION_DOT": 0.0008531, "MEAN_MOTION_DDOT": 0}, "tle": {"line1": "1 66833U 25280N   25359.23382454  .00085310  00000+0  13727-2 0  9996", "line2": "2 66833  70.0005 164.1675 0003151 262.1942  97.8887 15.52557013  4876"}}, "geometry": {"type": "Point", "coordinates": [156.2904990247356, -18.077740130254917]}}, {"type": "Feature", "properties": {"norad_id": 66834, "name": "STARLINK-35840", "group": "last-30-days", "lat": -16.230726487531985, "lon": 157.02922258529134, "alt_km": 412.6012153857737, "timestamp": "2025-12-25T14:48:23.570518+00:00", "meta": {"OBJECT_NAME": "STARLINK-35840", "OBJECT_ID": "2025-280P", "EPOCH": "2025-12-24T23:25:05.853216", "MEAN_MOTION": 15.52550883, "ECCENTRICITY": 0.00031525, "INCLINATION": 70.0008, "RA_OF_ASC_NODE": 164.8711, "ARG_OF_PERICENTER": 273.7303, "MEAN_ANOMALY": 86.3523, "EPHEMERIS_TYPE": 0, "CLASSIFICATION_TYPE": "U", "NORAD_CAT_ID": 66834, "ELEMENT_SET_NO": 999, "REV_AT_EPOCH": 483, "BSTAR": 0.0011724989, "MEAN_MOTION_DOT": 0.0007271, "MEAN_MOTION_DDOT": 0}, "tle": {"line1": "1 66834U 25280P   25358.97576219  .00072710  00000+0  11725-2 0  9997", "line2": "2 66834  70.0008 164.8711 0003152 273.7303  86.3523 15.52550883  4832"}}, "geometry": {"type": "Point", "coordinates": [157.02922258529134, -16.230726487531985]}}, {"type": "Feature", "properties": {"norad_id": 66835, "name": "STARLINK-35890", "group": "last-30-days", "lat": -14.453675187835055, "lon": 157.72648492576926, "alt_km": 412.45185548053087, "timestamp": "2025-12-25T14:48:23.570527+00:00", "meta": {"OBJECT_NAME": "STARLINK-35890", "OBJECT_ID": "2025-280Q", "EPOCH": "2025-12-24T23:24:36.295776", "MEAN_MOTION": 15.52545168, "ECCENTRICITY": 0.00032061, "INCLINATION": 70.0007, "RA_OF_ASC_NODE": 164.8698, "ARG_OF_PERICENTER": 274.9067, "MEAN_ANOMALY": 85.1754, "EPHEMERIS_TYPE": 0, "CLASSIFICATION_TYPE": "U", "NORAD_CAT_ID": 66835, "ELEMENT_SET_NO": 999, "REV_AT_EPOCH": 483, "BSTAR": 0.0012039707, "MEAN_MOTION_DOT": 0.0007467, "MEAN_MOTION_DDOT": 0}, "tle": {"line1": "1 66835U 25280Q   25358.97542009  .00074670  00000+0  12040-2 0  9996", "line2": "2 66835  70.0007 164.8698 0003206 274.9067  85.1754 15.52545168  4839"}}, "geometry": {"type": "Point", "coordinates": [157.72648492576926, -14.453675187835055]}}, {"type": "Feature", "properties": {"norad_id": 66836, "name": "STARLINK-35838", "group": "last-30-days", "lat": -12.673782780615385, "lon": 158.41266852204453, "alt_km": 412.46619934007776, "timestamp": "2025-12-25T14:48:23.570535+00:00", "meta": {"OBJECT_NAME": "STARLINK-35838", "OBJECT_ID": "2025-280R", "EPOCH": "2025-12-24T23:24:06.579360", "MEAN_MOTION": 15.52546198, "ECCENTRICITY": 0.00031611, "INCLINATION": 70.0009, "RA_OF_ASC_NODE": 164.8681, "ARG_OF_PERICENTER": 273.1712, "MEAN_ANOMALY": 86.9113, "EPHEMERIS_TYPE": 0, "CLASSIFICATION_TYPE": "U", "NORAD_CAT_ID": 66836, "ELEMENT_SET_NO": 999, "REV_AT_EPOCH": 483, "BSTAR": 0.00095817586, "MEAN_MOTION_DOT": 0.00059278, "MEAN_MOTION_DDOT": 0}, "tle": {"line1": "1 66836U 25280R   25358.97507615  .00059278  00000+0  95818-3 0  9993", "line2": "2 66836  70.0009 164.8681 0003161 273.1712  86.9113 15.52546198  4834"}}, "geometry": {"type": "Point", "coordinates": [158.41266852204453, -12.673782780615385]}}, {"type": "Feature", "properties": {"norad_id": 66837, "name": "STARLINK-35729", "group": "last-30-days", "lat": -10.84763322578057, "lon": 159.10630365499807, "alt_km": 412.19334949620315, "timestamp": "2025-12-25T14:48:23.570544+00:00", "meta": {"OBJECT_NAME": "STARLINK-35729", "OBJECT_ID": "2025-280S", "EPOCH": "2025-12-24T23:23:36.977856", "MEAN_MOTION": 15.525473, "ECCENTRICITY": 0.00032486, "INCLINATION": 70.0009, "RA_OF_ASC_NODE": 164.8667, "ARG_OF_PERICENTER": 274.5701, "MEAN_ANOMALY": 85.5115, "EPHEMERIS_TYPE": 0, "CLASSIFICATION_TYPE": "U", "NORAD_CAT_ID": 66837, "ELEMENT_SET_NO": 999, "REV_AT_EPOCH": 483, "BSTAR": 0.0013120151, "MEAN_MOTION_DOT": 0.00081463, "MEAN_MOTION_DDOT": 0}, "tle": {"line1": "1 66837U 25280S   25358.97473354  .00081463  00000+0  13120-2 0  9992", "line2": "2 66837  70.0009 164.8667 0003248 274.5701  85.5115 15.52547300  4831"}}, "geometry": {"type": "Point", "coordinates": [159.10630365499807, -10.84763322578057]}}, {"type": "Feature", "properties": {"norad_id": 66838, "name": "STARLINK-35886", "group": "last-30-days", "lat": -7.280401319430629, "lon": 160.43645558425507, "alt_km": 412.1646779278235, "timestamp": "2025-12-25T14:48:23.570554+00:00", "meta": {"OBJECT_NAME": "STARLINK-35886", "OBJECT_ID": "2025-280T", "EPOCH": "2025-12-24T23:22:36.703488", "MEAN_MOTION": 15.52537791, "ECCENTRICITY": 0.00033633, "INCLINATION": 70.0009, "RA_OF_ASC_NODE": 164.8636, "ARG_OF_PERICENTER": 273.8576, "MEAN_ANOMALY": 86.2227, "EPHEMERIS_TYPE": 0, "CLASSIFICATION_TYPE": "U", "NORAD_CAT_ID": 66838, "ELEMENT_SET_NO": 999, "REV_AT_EPOCH": 483, "BSTAR": 0.00051508963, "MEAN_MOTION_DOT": 0.00031669, "MEAN_MOTION_DDOT": 0}, "tle": {"line1": "1 66838U 25280T   25358.97403592  .00031669  00000+0  51509-3 0  9997", "line2": "2 66838  70.0009 164.8636 0003363 273.8576  86.2227 15.52537791  4833"}}, "geometry": {"type": "Point", "coordinates": [160.43645558425507, -7.280401319430629]}}]}